<?xml version="1.0" encoding="UTF-8"?>
<ndm xmlns:xsi="http://www.w3.org/2001/XMLSchema-instance" xsi:noNamespaceSchemaLocation="https://sanaregistry.org/r/ndmxml_unqualified/ndmxml-2.0.0-master-2.0.xsd">
<omm id="CCSDS_OMM_VERS" version="2.0">
<header><CREATION_DATE/><ORIGINATOR/></header><body><segment><metadata><OBJECT_NAME>ORBCOMM FM20</OBJECT_NAME><OBJECT_ID>1998-046D</OBJECT_ID><CENTER_NAME>EARTH</CENTER_NAME><REF_FRAME>TEME</REF_FRAME><TIME_SYSTEM>UTC</TIME_SYSTEM><MEAN_ELEMENT_THEORY>SGP4</MEAN_ELEMENT_THEORY></metadata><data><meanElements><EPOCH>2025-02-16T10:20:38.530464</EPOCH><MEAN_MOTION>14.36757463</MEAN_MOTION><ECCENTRICITY>.0002251</ECCENTRICITY><INCLINATION>44.9954</INCLINATION><RA_OF_ASC_NODE>32.9761</RA_OF_ASC_NODE><ARG_OF_PERICENTER>315.9277</ARG_OF_PERICENTER><MEAN_ANOMALY>44.1391</MEAN_ANOMALY></meanElements><tleParameters><EPHEMERIS_TYPE>0</EPHEMERIS_TYPE><CLASSIFICATION_TYPE>U</CLASSIFICATION_TYPE><NORAD_CAT_ID>25416</NORAD_CAT_ID><ELEMENT_SET_NO>999</ELEMENT_SET_NO><REV_AT_EPOCH>38693</REV_AT_EPOCH><BSTAR>.73078E-3</BSTAR><MEAN_MOTION_DOT>.2034E-4</MEAN_MOTION_DOT><MEAN_MOTION_DDOT>0</MEAN_MOTION_DDOT></tleParameters></data></segment></body></omm>
<omm id="CCSDS_OMM_VERS" version="2.0">
<header><CREATION_DATE/><ORIGINATOR/></header><body><segment><metadata><OBJECT_NAME>ORBCOMM FM16</OBJECT_NAME><OBJECT_ID>1998-046E</OBJECT_ID><CENTER_NAME>EARTH</CENTER_NAME><REF_FRAME>TEME</REF_FRAME><TIME_SYSTEM>UTC</TIME_SYSTEM><MEAN_ELEMENT_THEORY>SGP4</MEAN_ELEMENT_THEORY></metadata><data><meanElements><EPOCH>2025-02-15T22:31:53.874336</EPOCH><MEAN_MOTION>14.38269806</MEAN_MOTION><ECCENTRICITY>.0004487</ECCENTRICITY><INCLINATION>44.9945</INCLINATION><RA_OF_ASC_NODE>28.3993</RA_OF_ASC_NODE><ARG_OF_PERICENTER>15.7290</ARG_OF_PERICENTER><MEAN_ANOMALY>344.3697</MEAN_ANOMALY></meanElements><tleParameters><EPHEMERIS_TYPE>0</EPHEMERIS_TYPE><CLASSIFICATION_TYPE>U</CLASSIFICATION_TYPE><NORAD_CAT_ID>25417</NORAD_CAT_ID><ELEMENT_SET_NO>999</ELEMENT_SET_NO><REV_AT_EPOCH>38679</REV_AT_EPOCH><BSTAR>.10627E-2</BSTAR><MEAN_MOTION_DOT>.3121E-4</MEAN_MOTION_DOT><MEAN_MOTION_DDOT>0</MEAN_MOTION_DDOT></tleParameters></data></segment></body></omm>
<omm id="CCSDS_OMM_VERS" version="2.0">
<header><CREATION_DATE/><ORIGINATOR/></header><body><segment><metadata><OBJECT_NAME>ORBCOMM FM15</OBJECT_NAME><OBJECT_ID>1998-046F</OBJECT_ID><CENTER_NAME>EARTH</CENTER_NAME><REF_FRAME>TEME</REF_FRAME><TIME_SYSTEM>UTC</TIME_SYSTEM><MEAN_ELEMENT_THEORY>SGP4</MEAN_ELEMENT_THEORY></metadata><data><meanElements><EPOCH>2025-02-15T16:15:32.472288</EPOCH><MEAN_MOTION>14.37940586</MEAN_MOTION><ECCENTRICITY>.0004022</ECCENTRICITY><INCLINATION>44.9974</INCLINATION><RA_OF_ASC_NODE>34.4309</RA_OF_ASC_NODE><ARG_OF_PERICENTER>12.0095</ARG_OF_PERICENTER><MEAN_ANOMALY>348.0848</MEAN_ANOMALY></meanElements><tleParameters><EPHEMERIS_TYPE>0</EPHEMERIS_TYPE><CLASSIFICATION_TYPE>U</CLASSIFICATION_TYPE><NORAD_CAT_ID>25418</NORAD_CAT_ID><ELEMENT_SET_NO>999</ELEMENT_SET_NO><REV_AT_EPOCH>38675</REV_AT_EPOCH><BSTAR>.87472E-3</BSTAR><MEAN_MOTION_DOT>.2526E-4</MEAN_MOTION_DOT><MEAN_MOTION_DDOT>0</MEAN_MOTION_DDOT></tleParameters></data></segment></body></omm>
<omm id="CCSDS_OMM_VERS" version="2.0">
<header><CREATION_DATE/><ORIGINATOR/></header><body><segment><metadata><OBJECT_NAME>ORBCOMM FM14</OBJECT_NAME><OBJECT_ID>1998-046G</OBJECT_ID><CENTER_NAME>EARTH</CENTER_NAME><REF_FRAME>TEME</REF_FRAME><TIME_SYSTEM>UTC</TIME_SYSTEM><MEAN_ELEMENT_THEORY>SGP4</MEAN_ELEMENT_THEORY></metadata><data><meanElements><EPOCH>2025-02-15T15:42:50.827680</EPOCH><MEAN_MOTION>14.38252544</MEAN_MOTION><ECCENTRICITY>.0003526</ECCENTRICITY><INCLINATION>44.9963</INCLINATION><RA_OF_ASC_NODE>33.1071</RA_OF_ASC_NODE><ARG_OF_PERICENTER>355.3416</ARG_OF_PERICENTER><MEAN_ANOMALY>4.7399</MEAN_ANOMALY></meanElements><tleParameters><EPHEMERIS_TYPE>0</EPHEMERIS_TYPE><CLASSIFICATION_TYPE>U</CLASSIFICATION_TYPE><NORAD_CAT_ID>25419</NORAD_CAT_ID><ELEMENT_SET_NO>999</ELEMENT_SET_NO><REV_AT_EPOCH>38671</REV_AT_EPOCH><BSTAR>.91344E-3</BSTAR><MEAN_MOTION_DOT>.2661E-4</MEAN_MOTION_DOT><MEAN_MOTION_DDOT>0</MEAN_MOTION_DDOT></tleParameters></data></segment></body></omm>
<omm id="CCSDS_OMM_VERS" version="2.0">
<header><CREATION_DATE/><ORIGINATOR/></header><body><segment><metadata><OBJECT_NAME>ORBCOMM FM13</OBJECT_NAME><OBJECT_ID>1998-046H</OBJECT_ID><CENTER_NAME>EARTH</CENTER_NAME><REF_FRAME>TEME</REF_FRAME><TIME_SYSTEM>UTC</TIME_SYSTEM><MEAN_ELEMENT_THEORY>SGP4</MEAN_ELEMENT_THEORY></metadata><data><meanElements><EPOCH>2025-02-15T16:01:57.641664</EPOCH><MEAN_MOTION>14.37147063</MEAN_MOTION><ECCENTRICITY>.0005394</ECCENTRICITY><INCLINATION>44.9977</INCLINATION><RA_OF_ASC_NODE>39.8905</RA_OF_ASC_NODE><ARG_OF_PERICENTER>1.3933</ARG_OF_PERICENTER><MEAN_ANOMALY>358.6929</MEAN_ANOMALY></meanElements><tleParameters><EPHEMERIS_TYPE>0</EPHEMERIS_TYPE><CLASSIFICATION_TYPE>U</CLASSIFICATION_TYPE><NORAD_CAT_ID>25420</NORAD_CAT_ID><ELEMENT_SET_NO>999</ELEMENT_SET_NO><REV_AT_EPOCH>38575</REV_AT_EPOCH><BSTAR>.88027E-3</BSTAR><MEAN_MOTION_DOT>.25E-4</MEAN_MOTION_DOT><MEAN_MOTION_DDOT>0</MEAN_MOTION_DDOT></tleParameters></data></segment></body></omm>
<omm id="CCSDS_OMM_VERS" version="2.0">
<header><CREATION_DATE/><ORIGINATOR/></header><body><segment><metadata><OBJECT_NAME>ORBCOMM FM21</OBJECT_NAME><OBJECT_ID>1998-053A</OBJECT_ID><CENTER_NAME>EARTH</CENTER_NAME><REF_FRAME>TEME</REF_FRAME><TIME_SYSTEM>UTC</TIME_SYSTEM><MEAN_ELEMENT_THEORY>SGP4</MEAN_ELEMENT_THEORY></metadata><data><meanElements><EPOCH>2025-02-15T22:15:10.060128</EPOCH><MEAN_MOTION>14.36895866</MEAN_MOTION><ECCENTRICITY>.0002513</ECCENTRICITY><INCLINATION>45.0082</INCLINATION><RA_OF_ASC_NODE>123.5699</RA_OF_ASC_NODE><ARG_OF_PERICENTER>271.2184</ARG_OF_PERICENTER><MEAN_ANOMALY>88.8376</MEAN_ANOMALY></meanElements><tleParameters><EPHEMERIS_TYPE>0</EPHEMERIS_TYPE><CLASSIFICATION_TYPE>U</CLASSIFICATION_TYPE><NORAD_CAT_ID>25475</NORAD_CAT_ID><ELEMENT_SET_NO>999</ELEMENT_SET_NO><REV_AT_EPOCH>37980</REV_AT_EPOCH><BSTAR>.66006E-3</BSTAR><MEAN_MOTION_DOT>.1829E-4</MEAN_MOTION_DOT><MEAN_MOTION_DDOT>0</MEAN_MOTION_DDOT></tleParameters></data></segment></body></omm>
<omm id="CCSDS_OMM_VERS" version="2.0">
<header><CREATION_DATE/><ORIGINATOR/></header><body><segment><metadata><OBJECT_NAME>ORBCOMM FM22</OBJECT_NAME><OBJECT_ID>1998-053B</OBJECT_ID><CENTER_NAME>EARTH</CENTER_NAME><REF_FRAME>TEME</REF_FRAME><TIME_SYSTEM>UTC</TIME_SYSTEM><MEAN_ELEMENT_THEORY>SGP4</MEAN_ELEMENT_THEORY></metadata><data><meanElements><EPOCH>2025-02-15T21:47:40.206336</EPOCH><MEAN_MOTION>14.37784684</MEAN_MOTION><ECCENTRICITY>.0003974</ECCENTRICITY><INCLINATION>45.0067</INCLINATION><RA_OF_ASC_NODE>119.4361</RA_OF_ASC_NODE><ARG_OF_PERICENTER>294.9154</ARG_OF_PERICENTER><MEAN_ANOMALY>65.1281</MEAN_ANOMALY></meanElements><tleParameters><EPHEMERIS_TYPE>0</EPHEMERIS_TYPE><CLASSIFICATION_TYPE>U</CLASSIFICATION_TYPE><NORAD_CAT_ID>25476</NORAD_CAT_ID><ELEMENT_SET_NO>999</ELEMENT_SET_NO><REV_AT_EPOCH>37981</REV_AT_EPOCH><BSTAR>.75449E-3</BSTAR><MEAN_MOTION_DOT>.2152E-4</MEAN_MOTION_DOT><MEAN_MOTION_DDOT>0</MEAN_MOTION_DDOT></tleParameters></data></segment></body></omm>
<omm id="CCSDS_OMM_VERS" version="2.0">
<header><CREATION_DATE/><ORIGINATOR/></header><body><segment><metadata><OBJECT_NAME>ORBCOMM FM23</OBJECT_NAME><OBJECT_ID>1998-053C</OBJECT_ID><CENTER_NAME>EARTH</CENTER_NAME><REF_FRAME>TEME</REF_FRAME><TIME_SYSTEM>UTC</TIME_SYSTEM><MEAN_ELEMENT_THEORY>SGP4</MEAN_ELEMENT_THEORY></metadata><data><meanElements><EPOCH>2025-02-15T22:35:46.188384</EPOCH><MEAN_MOTION>14.37024004</MEAN_MOTION><ECCENTRICITY>.0003259</ECCENTRICITY><INCLINATION>45.0073</INCLINATION><RA_OF_ASC_NODE>125.7760</RA_OF_ASC_NODE><ARG_OF_PERICENTER>284.5012</ARG_OF_PERICENTER><MEAN_ANOMALY>75.5474</MEAN_ANOMALY></meanElements><tleParameters><EPHEMERIS_TYPE>0</EPHEMERIS_TYPE><CLASSIFICATION_TYPE>U</CLASSIFICATION_TYPE><NORAD_CAT_ID>25477</NORAD_CAT_ID><ELEMENT_SET_NO>999</ELEMENT_SET_NO><REV_AT_EPOCH>37995</REV_AT_EPOCH><BSTAR>.8035E-3</BSTAR><MEAN_MOTION_DOT>.2264E-4</MEAN_MOTION_DOT><MEAN_MOTION_DDOT>0</MEAN_MOTION_DDOT></tleParameters></data></segment></body></omm>

</ndm>
