ORBCOMM FM20            
1 25416U 98046D   25047.43100151  .00002034  00000+0  73078-3 0  9994
2 25416  44.9954  32.9761 0002251 315.9277  44.1391 14.36757463386934
ORBCOMM FM16            
1 25417U 98046E   25046.93881799  .00003121  00000+0  10627-2 0  9991
2 25417  44.9945  28.3993 0004487  15.7290 344.3697 14.38269806386793
ORBCOMM FM15            
1 25418U 98046F   25046.67745917  .00002526  00000+0  87472-3 0  9995
2 25418  44.9974  34.4309 0004022  12.0095 348.0848 14.37940586386758
ORBCOMM FM14            
1 25419U 98046G   25046.65475495  .00002661  00000+0  91344-3 0  9998
2 25419  44.9963  33.1071 0003526 355.3416   4.7399 14.38252544386711
ORBCOMM FM13            
1 25420U 98046H   25046.66802826  .00002500  00000+0  88027-3 0  9999
2 25420  44.9977  39.8905 0005394   1.3933 358.6929 14.37147063385755
ORBCOMM FM21            
1 25475U 98053A   25046.92719977  .00001829  00000+0  66006-3 0  9996
2 25475  45.0082 123.5699 0002513 271.2184  88.8376 14.36895866379808
ORBCOMM FM22            
1 25476U 98053B   25046.90810424  .00002152  00000+0  75449-3 0  9995
2 25476  45.0067 119.4361 0003974 294.9154  65.1281 14.37784684379813
ORBCOMM FM23            
1 25477U 98053C   25046.94150681  .00002264  00000+0  80350-3 0  9993
2 25477  45.0073 125.7760 0003259 284.5012  75.5474 14.37024004379955
